OBJECT_NAME,OBJECT_ID,EPOCH,MEAN_MOTION,ECCENTRICITY,INCLINATION,RA_OF_ASC_NODE,ARG_OF_PERICENTER,MEAN_ANOMALY,EPHEMERIS_TYPE,CLASSIFICATION_TYPE,NORAD_CAT_ID,ELEMENT_SET_NO,REV_AT_EPOCH,BSTAR,MEAN_MOTION_DOT,MEAN_MOTION_DDOT
KKS-1 (KISEKI),2009-002H,2026-06-17T11:00:57.326112,14.83124616,.0006512,98.1189,90.9055,294.8329,65.2207,0,U,33499,999,93623,.13454E-3,.1041E-4,0
UK-DMC 2,2009-041C,2026-06-17T13:33:16.357824,14.76027579,.0001164,97.8841,303.5213,78.7719,281.3621,0,U,35683,999,90662,.10061E-3,.644E-5,0
OCEANSAT-2,2009-051A,2026-06-17T11:39:06.270336,13.99664402,.0015226,98.2324,155.3072,235.0500,124.9237,0,U,35931,999,87937,-.68261E-4,-.138E-5,0
SWISSCUBE,2009-051B,2026-06-17T07:19:54.882048,14.62481763,.000597,98.4035,76.1959,202.6029,157.4910,0,U,35932,999,88917,.16253E-3,.774E-5,0
BEESAT-1,2009-051C,2026-06-17T07:33:35.358912,14.61720657,.0004229,98.3964,75.8408,216.3512,143.7401,0,U,35933,999,88920,.14128E-3,.655E-5,0
ITUPSAT1,2009-051E,2026-06-16T16:32:42.236736,14.60440072,.0006243,98.4049,74.3979,235.8160,124.2448,0,U,35935,999,88866,.13815E-3,.621E-5,0
DMSP 5D-3 F18 (USA 210),2009-057A,2026-06-17T11:52:18.158304,14.14896892,.0009899,98.9037,149.2631,248.5334,111.4784,0,U,35951,999,85963,.13191E-3,.21E-5,0
PROBA-2,2009-059B,2026-06-17T10:43:23.515680,14.54862537,.0011958,98.2449,351.7959,281.2389,78.7464,0,U,36037,999,88156,.41234E-4,.132E-5,0
YAOGAN-7,2009-069A,2026-06-17T07:00:18.991872,14.78009921,.0025567,98.0071,54.1583,41.4114,318.9029,0,U,36110,999,88964,.61664E-4,.394E-5,0
XIWANG-1 (HOPE-1),2009-072B,2026-06-17T11:19:30.455328,13.16438304,.0006873,100.4028,122.2999,230.9718,129.0783,0,U,36122,999,79304,-.81743E-4,-.76E-6,0
COSMOS 2463,2010-017A,2026-06-17T08:05:10.898016,13.71665699,.0037346,82.9606,249.5957,128.4742,297.3004,0,U,36519,999,80795,.45102E-4,.56E-6,0
CARTOSAT-2B,2010-035A,2026-06-17T13:01:28.963776,14.78661514,.0011194,97.9950,219.0903,182.5920,177.5234,0,U,36795,999,85990,.5768E-4,.371E-5,0
TISAT 1,2010-035E,2026-06-16T22:06:24.532128,15.31700616,.0001362,98.0714,114.4464,167.9890,192.1382,0,U,36799,999,86766,.56437E-3,.17209E-3,0
YAOGAN-10,2010-038A,2026-06-17T13:27:49.084128,14.85349561,.0001653,97.8968,191.9620,85.7081,16.6835,0,U,36834,999,85726,.16432E-3,.1359E-4,0
SHIJIAN-6 04B (SJ-6 04B),2010-051B,2026-06-17T11:45:47.517984,14.99315533,.0007943,97.8678,173.9033,313.7688,46.2876,0,U,37180,999,85572,.10548E-3,.1227E-4,0
FENGYUN 3B,2010-059A,2026-06-17T12:35:42.254304,14.14841651,.0021892,98.9616,214.5410,182.9538,283.2813,0,U,37214,999,80747,.70147E-4,.91E-6,0
COSMO-SKYMED 4,2010-060A,2026-06-17T12:16:13.405728,14.82152065,.0001391,97.8879,352.1057,81.1478,278.9893,0,U,37216,999,84461,-.12318E-4,-.15E-5,0
O/OREOS (USA 219),2010-062C,2026-06-17T03:06:01.478592,14.93744241,.0012546,71.9713,80.4709,63.1875,297.0577,0,U,37224,999,11663,.1698E-3,.1739E-4,0
RESOURCESAT-2,2011-015A,2026-06-17T10:34:55.635744,14.21606587,.0010211,98.7644,235.8810,254.6981,105.3068,0,U,37387,999,78621,.60415E-4,.88E-6,0
YOUTHSAT,2011-015B,2026-06-17T12:26:49.086816,14.25630372,.0014187,98.3682,142.5577,346.1588,133.1593,0,U,37388,999,78768,.73724E-4,.133E-5,0
APRIZESAT 6,2011-044F,2026-06-17T08:39:38.094912,14.76916063,.0044509,98.2364,78.8640,85.5033,33.1516,0,U,37793,999,79717,.93227E-4,.61E-5,0
JUGNU,2011-058B,2026-06-17T02:28:52.788000,14.13776752,.0018637,19.9617,308.9384,75.2680,81.6214,0,U,37839,999,75901,.67695E-4,.397E-5,0
SRMSAT,2011-058D,2026-06-17T02:08:22.947072,14.11575544,.0011791,19.9723,60.0600,202.5356,269.2197,0,U,37841,999,75780,.49079E-4,.356E-5,0
SUOMI NPP,2011-061A,2026-06-17T11:33:22.946112,14.19517399,.0001516,98.7953,109.3555,6.0769,354.0425,0,U,37849,999,75848,.44099E-4,.49E-6,0
YAOGAN-12,2011-066B,2026-06-17T12:40:14.242368,15.26607212,.0008668,97.1135,207.0807,215.3247,144.7419,0,U,37875,999,81209,.25374E-3,.6582E-4,0
BEIDOU-2 M4,2012-018B,2026-06-16T14:00:59.320224,1.86229380,.0011286,55.6588,304.1100,275.8041,84.0525,0,U,38251,999,9593,0,-.71E-6,0
