KKS-1 (KISEKI)          
1 33499U 09002H   26168.45899683  .00001041  00000+0  13454-3 0  9999
2 33499  98.1189  90.9055 0006512 294.8329  65.2207 14.83124616936236
UK-DMC 2                
1 35683U 09041C   26168.56477266  .00000644  00000+0  10061-3 0  9999
2 35683  97.8841 303.5213 0001164  78.7719 281.3621 14.76027579906626
OCEANSAT-2              
1 35931U 09051A   26168.48548924 -.00000138  00000+0 -68261-4 0  9993
2 35931  98.2324 155.3072 0015226 235.0500 124.9237 13.99664402879371
SWISSCUBE               
1 35932U 09051B   26168.30549632  .00000774  00000+0  16253-3 0  9999
2 35932  98.4035  76.1959 0005970 202.6029 157.4910 14.62481763889174
BEESAT-1                
1 35933U 09051C   26168.31499258  .00000655  00000+0  14128-3 0  9996
2 35933  98.3964  75.8408 0004229 216.3512 143.7401 14.61720657889209
ITUPSAT1                
1 35935U 09051E   26167.68937774  .00000621  00000+0  13815-3 0  9992
2 35935  98.4049  74.3979 0006243 235.8160 124.2448 14.60440072888669
DMSP 5D-3 F18 (USA 210) 
1 35951U 09057A   26168.49465461  .00000210  00000+0  13191-3 0  9996
2 35951  98.9037 149.2631 0009899 248.5334 111.4784 14.14896892859630
PROBA-2                 
1 36037U 09059B   26168.44679995  .00000132  00000+0  41234-4 0  9991
2 36037  98.2449 351.7959 0011958 281.2389  78.7464 14.54862537881562
YAOGAN-7                
1 36110U 09069A   26168.29188648  .00000394  00000+0  61664-4 0  9996
2 36110  98.0071  54.1583 0025567  41.4114 318.9029 14.78009921889642
XIWANG-1 (HOPE-1)       
1 36122U 09072B   26168.47188027 -.00000076  00000+0 -81743-4 0  9993
2 36122 100.4028 122.2999 0006873 230.9718 129.0783 13.16438304793045
COSMOS 2463             
1 36519U 10017A   26168.33693169  .00000056  00000+0  45102-4 0  9992
2 36519  82.9606 249.5957 0037346 128.4742 297.3004 13.71665699807956
CARTOSAT-2B             
1 36795U 10035A   26168.54269634  .00000371  00000+0  57680-4 0  9991
2 36795  97.9950 219.0903 0011194 182.5920 177.5234 14.78661514859901
TISAT 1                 
1 36799U 10035E   26167.92111727  .00017209  00000+0  56437-3 0  9991
2 36799  98.0714 114.4464 0001362 167.9890 192.1382 15.31700616867660
YAOGAN-10               
1 36834U 10038A   26168.56098477  .00001359  00000+0  16432-3 0  9991
2 36834  97.8968 191.9620 0001653  85.7081  16.6835 14.85349561857268
SHIJIAN-6 04B (SJ-6 04B)
1 37180U 10051B   26168.49013331  .00001227  00000+0  10548-3 0  9995
2 37180  97.8678 173.9033 0007943 313.7688  46.2876 14.99315533855724
FENGYUN 3B              
1 37214U 10059A   26168.52479461  .00000091  00000+0  70147-4 0  9995
2 37214  98.9616 214.5410 0021892 182.9538 283.2813 14.14841651807471
COSMO-SKYMED 4          
1 37216U 10060A   26168.51126627 -.00000150  00000+0 -12318-4 0  9995
2 37216  97.8879 352.1057 0001391  81.1478 278.9893 14.82152065844618
O/OREOS (USA 219)       
1 37224U 10062C   26168.12918378  .00001739  00000+0  16980-3 0  9995
2 37224  71.9713  80.4709 0012546  63.1875 297.0577 14.93744241116637
RESOURCESAT-2           
1 37387U 11015A   26168.44092171  .00000088  00000+0  60415-4 0  9992
2 37387  98.7644 235.8810 0010211 254.6981 105.3068 14.21606587786212
YOUTHSAT                
1 37388U 11015B   26168.51862369  .00000133  00000+0  73724-4 0  9993
2 37388  98.3682 142.5577 0014187 346.1588 133.1593 14.25630372787688
APRIZESAT 6             
1 37793U 11044F   26168.36085758  .00000610  00000+0  93227-4 0  9997
2 37793  98.2364  78.8640 0044509  85.5033  33.1516 14.76916063797175
JUGNU                   
1 37839U 11058B   26168.10338875  .00000397  00000+0  67695-4 0  9998
2 37839  19.9617 308.9384 0018637  75.2680  81.6214 14.13776752759010
SRMSAT                  
1 37841U 11058D   26168.08915448  .00000356  00000+0  49079-4 0  9996
2 37841  19.9723  60.0600 0011791 202.5356 269.2197 14.11575544757800
SUOMI NPP               
1 37849U 11061A   26168.48151558  .00000049  00000+0  44099-4 0  9992
2 37849  98.7953 109.3555 0001516   6.0769 354.0425 14.19517399758487
YAOGAN-12               
1 37875U 11066B   26168.52794262  .00006582  00000+0  25374-3 0  9998
2 37875  97.1135 207.0807 0008668 215.3247 144.7419 15.26607212812096
BEIDOU-2 M4             
1 38251U 12018B   26167.58401991 -.00000071  00000+0  00000+0 0  9997
2 38251  55.6588 304.1100 0011286 275.8041  84.0525  1.86229380 95931
